GOES 17
1 43226U 18022A   26119.19141948 -.00000184  00000+0  00000+0 0  9998
2 43226   0.8138  86.3737 0000677 292.3163 177.8867  1.00271825 29932
